{"fetched_at":"2026-07-16T06:43:00.092Z","source":"https://celestrak.org/NORAD/elements/gp.php?NAME=HULIANWANG&FORMAT=JSON","constellation":"guowang","records":[{"OBJECT_NAME":"HULIANWANG DIGUI-140","OBJECT_ID":"2026-007D","EPOCH":"2026-07-15T17:58:45.002208","CLASSIFICATION_TYPE":"U","MEAN_MOTION":13.29326037,"ECCENTRICITY":0.00008767,"INCLINATION":50.0071,"RA_OF_ASC_NODE":343.6017,"ARG_OF_PERICENTER":120.2635,"MEAN_ANOMALY":239.8324,"EPHEMERIS_TYPE":0,"NORAD_CAT_ID":67438,"ELEMENT_SET_NO":999,"REV_AT_EPOCH":2458,"BSTAR":0.000011809117,"MEAN_MOTION_DOT":-0.00000119,"MEAN_MOTION_DDOT":0},{"OBJECT_NAME":"HULIANWANG DIGUI-141","OBJECT_ID":"2026-007E","EPOCH":"2026-07-15T18:58:50.736864","CLASSIFICATION_TYPE":"U","MEAN_MOTION":13.29326848,"ECCENTRICITY":0.00008605,"INCLINATION":50.0065,"RA_OF_ASC_NODE":343.1481,"ARG_OF_PERICENTER":117.6547,"MEAN_ANOMALY":242.4412,"EPHEMERIS_TYPE":0,"NORAD_CAT_ID":67439,"ELEMENT_SET_NO":999,"REV_AT_EPOCH":2459,"BSTAR":0.000036625369,"MEAN_MOTION_DOT":-0.00000107,"MEAN_MOTION_DDOT":0},{"OBJECT_NAME":"HULIANWANG DIGUI-142","OBJECT_ID":"2026-007F","EPOCH":"2026-07-15T18:46:51.673728","CLASSIFICATION_TYPE":"U","MEAN_MOTION":13.29326564,"ECCENTRICITY":0.00008871,"INCLINATION":50.0138,"RA_OF_ASC_NODE":343.22,"ARG_OF_PERICENTER":117.6518,"MEAN_ANOMALY":242.4444,"EPHEMERIS_TYPE":0,"NORAD_CAT_ID":67440,"ELEMENT_SET_NO":999,"REV_AT_EPOCH":2459,"BSTAR":0.000027349614,"MEAN_MOTION_DOT":-0.00000111,"MEAN_MOTION_DDOT":0},{"OBJECT_NAME":"HULIANWANG DIGUI-143","OBJECT_ID":"2026-007G","EPOCH":"2026-07-15T18:34:53.788224","CLASSIFICATION_TYPE":"U","MEAN_MOTION":13.29324955,"ECCENTRICITY":0.00007313,"INCLINATION":50.0122,"RA_OF_ASC_NODE":343.1484,"ARG_OF_PERICENTER":120.1401,"MEAN_ANOMALY":239.9544,"EPHEMERIS_TYPE":0,"NORAD_CAT_ID":67441,"ELEMENT_SET_NO":999,"REV_AT_EPOCH":2459,"BSTAR":0.000025049254,"MEAN_MOTION_DOT":-0.00000112,"MEAN_MOTION_DDOT":0},{"OBJECT_NAME":"HULIANWANG DIGUI-144","OBJECT_ID":"2026-007H","EPOCH":"2026-07-15T09:21:18.200736","CLASSIFICATION_TYPE":"U","MEAN_MOTION":13.29329273,"ECCENTRICITY":0.00008854,"INCLINATION":50.0107,"RA_OF_ASC_NODE":344.4365,"ARG_OF_PERICENTER":124.8257,"MEAN_ANOMALY":235.2698,"EPHEMERIS_TYPE":0,"NORAD_CAT_ID":67442,"ELEMENT_SET_NO":999,"REV_AT_EPOCH":2454,"BSTAR":0.000040917017,"MEAN_MOTION_DOT":-0.00000105,"MEAN_MOTION_DDOT":0},{"OBJECT_NAME":"HULIANWANG DIGUI-145","OBJECT_ID":"2026-007J","EPOCH":"2026-07-15T18:10:50.338848","CLASSIFICATION_TYPE":"U","MEAN_MOTION":13.29325834,"ECCENTRICITY":0.00008427,"INCLINATION":50.011,"RA_OF_ASC_NODE":343.0515,"ARG_OF_PERICENTER":121.6196,"MEAN_ANOMALY":238.4759,"EPHEMERIS_TYPE":0,"NORAD_CAT_ID":67443,"ELEMENT_SET_NO":999,"REV_AT_EPOCH":2459,"BSTAR":0.000039879595,"MEAN_MOTION_DOT":-0.00000106,"MEAN_MOTION_DDOT":0},{"OBJECT_NAME":"HULIANWANG DIGUI-146","OBJECT_ID":"2026-013A","EPOCH":"2026-07-15T12:02:19.028832","CLASSIFICATION_TYPE":"U","MEAN_MOTION":13.29325245,"ECCENTRICITY":0.0001333,"INCLINATION":50.007,"RA_OF_ASC_NODE":254.3572,"ARG_OF_PERICENTER":219.1572,"MEAN_ANOMALY":140.9203,"EPHEMERIS_TYPE":0,"NORAD_CAT_ID":67522,"ELEMENT_SET_NO":999,"REV_AT_EPOCH":2381,"BSTAR":0.00010223,"MEAN_MOTION_DOT":-7.7e-7,"MEAN_MOTION_DDOT":0},{"OBJECT_NAME":"HULIANWANG DIGUI-147","OBJECT_ID":"2026-013B","EPOCH":"2026-07-15T10:01:49.404288","CLASSIFICATION_TYPE":"U","MEAN_MOTION":13.29328842,"ECCENTRICITY":0.00012529,"INCLINATION":50.004,"RA_OF_ASC_NODE":254.5348,"ARG_OF_PERICENTER":219.324,"MEAN_ANOMALY":140.7541,"EPHEMERIS_TYPE":0,"NORAD_CAT_ID":67523,"ELEMENT_SET_NO":999,"REV_AT_EPOCH":2380,"BSTAR":0.00010355388,"MEAN_MOTION_DOT":-7.6e-7,"MEAN_MOTION_DDOT":0},{"OBJECT_NAME":"HULIANWANG DIGUI-148","OBJECT_ID":"2026-013C","EPOCH":"2026-07-15T09:49:45.043104","CLASSIFICATION_TYPE":"U","MEAN_MOTION":13.29326702,"ECCENTRICITY":0.00012949,"INCLINATION":50.0082,"RA_OF_ASC_NODE":254.5541,"ARG_OF_PERICENTER":218.3476,"MEAN_ANOMALY":141.7304,"EPHEMERIS_TYPE":0,"NORAD_CAT_ID":67524,"ELEMENT_SET_NO":999,"REV_AT_EPOCH":2380,"BSTAR":0.000077766398,"MEAN_MOTION_DOT":-8.8e-7,"MEAN_MOTION_DDOT":0},{"OBJECT_NAME":"HULIANWANG DIGUI-149","OBJECT_ID":"2026-013D","EPOCH":"2026-07-15T09:37:55.441632","CLASSIFICATION_TYPE":"U","MEAN_MOTION":13.29331529,"ECCENTRICITY":0.0001494,"INCLINATION":50.0076,"RA_OF_ASC_NODE":254.5029,"ARG_OF_PERICENTER":220.7247,"MEAN_ANOMALY":139.3514,"EPHEMERIS_TYPE":0,"NORAD_CAT_ID":67525,"ELEMENT_SET_NO":999,"REV_AT_EPOCH":2380,"BSTAR":0.000076753448,"MEAN_MOTION_DOT":-8.8e-7,"MEAN_MOTION_DDOT":0},{"OBJECT_NAME":"HULIANWANG DIGUI-150","OBJECT_ID":"2026-013E","EPOCH":"2026-07-15T12:50:24.724032","CLASSIFICATION_TYPE":"U","MEAN_MOTION":13.29325776,"ECCENTRICITY":0.0001284,"INCLINATION":50.0036,"RA_OF_ASC_NODE":253.8184,"ARG_OF_PERICENTER":220.1084,"MEAN_ANOMALY":139.9693,"EPHEMERIS_TYPE":0,"NORAD_CAT_ID":67526,"ELEMENT_SET_NO":999,"REV_AT_EPOCH":2384,"BSTAR":0.00012365,"MEAN_MOTION_DOT":-6.7e-7,"MEAN_MOTION_DDOT":0},{"OBJECT_NAME":"HULIANWANG DIGUI-151","OBJECT_ID":"2026-013F","EPOCH":"2026-07-15T13:02:23.654976","CLASSIFICATION_TYPE":"U","MEAN_MOTION":13.29327902,"ECCENTRICITY":0.00012701,"INCLINATION":50.0086,"RA_OF_ASC_NODE":253.928,"ARG_OF_PERICENTER":219.0463,"MEAN_ANOMALY":141.0317,"EPHEMERIS_TYPE":0,"NORAD_CAT_ID":67527,"ELEMENT_SET_NO":999,"REV_AT_EPOCH":2382,"BSTAR":0.00010766214,"MEAN_MOTION_DOT":-7.4e-7,"MEAN_MOTION_DDOT":0},{"OBJECT_NAME":"HULIANWANG DIGUI-152","OBJECT_ID":"2026-013G","EPOCH":"2026-07-15T12:38:15.589248","CLASSIFICATION_TYPE":"U","MEAN_MOTION":13.29332469,"ECCENTRICITY":0.0001274,"INCLINATION":50.0028,"RA_OF_ASC_NODE":253.7644,"ARG_OF_PERICENTER":222.1363,"MEAN_ANOMALY":137.9411,"EPHEMERIS_TYPE":0,"NORAD_CAT_ID":67528,"ELEMENT_SET_NO":999,"REV_AT_EPOCH":2382,"BSTAR":0.000099127,"MEAN_MOTION_DOT":-7.8e-7,"MEAN_MOTION_DDOT":0},{"OBJECT_NAME":"HULIANWANG DIGUI-153","OBJECT_ID":"2026-013H","EPOCH":"2026-07-15T12:26:21.818976","CLASSIFICATION_TYPE":"U","MEAN_MOTION":13.29323803,"ECCENTRICITY":0.0001261,"INCLINATION":50.0029,"RA_OF_ASC_NODE":253.7241,"ARG_OF_PERICENTER":223.2707,"MEAN_ANOMALY":136.8066,"EPHEMERIS_TYPE":0,"NORAD_CAT_ID":67529,"ELEMENT_SET_NO":999,"REV_AT_EPOCH":2381,"BSTAR":0.00009651,"MEAN_MOTION_DOT":-7.9e-7,"MEAN_MOTION_DDOT":0},{"OBJECT_NAME":"HULIANWANG DIGUI-154","OBJECT_ID":"2026-013J","EPOCH":"2026-07-15T12:14:11.198112","CLASSIFICATION_TYPE":"U","MEAN_MOTION":13.29332281,"ECCENTRICITY":0.0001248,"INCLINATION":50.0054,"RA_OF_ASC_NODE":253.7193,"ARG_OF_PERICENTER":220.5629,"MEAN_ANOMALY":139.5151,"EPHEMERIS_TYPE":0,"NORAD_CAT_ID":67530,"ELEMENT_SET_NO":999,"REV_AT_EPOCH":2381,"BSTAR":0.000097548,"MEAN_MOTION_DOT":-7.9e-7,"MEAN_MOTION_DDOT":0},{"OBJECT_NAME":"HULIANWANG DIGUI-155","OBJECT_ID":"2026-047A","EPOCH":"2026-07-15T11:55:02.902368","CLASSIFICATION_TYPE":"U","MEAN_MOTION":13.29333847,"ECCENTRICITY":0.0000915,"INCLINATION":50.0046,"RA_OF_ASC_NODE":314.8518,"ARG_OF_PERICENTER":201.8935,"MEAN_ANOMALY":158.1899,"EPHEMERIS_TYPE":0,"NORAD_CAT_ID":68129,"ELEMENT_SET_NO":999,"REV_AT_EPOCH":1683,"BSTAR":0.000045388414,"MEAN_MOTION_DOT":-0.00000103,"MEAN_MOTION_DDOT":0}]}
