HULIANWANG DIGUI-140    
1 67438U 26007D   26196.74913197 -.00000119  00000+0  11809-4 0  9992
2 67438  50.0071 343.6017 0000877 120.2635 239.8324 13.29326037 24584
HULIANWANG DIGUI-141    
1 67439U 26007E   26196.79086500 -.00000107  00000+0  36625-4 0  9997
2 67439  50.0065 343.1481 0000860 117.6547 242.4412 13.29326848 24591
HULIANWANG DIGUI-142    
1 67440U 26007F   26196.78254251 -.00000111  00000+0  27350-4 0  9998
2 67440  50.0138 343.2200 0000887 117.6518 242.4444 13.29326564 24591
HULIANWANG DIGUI-143    
1 67441U 26007G   26196.77423366 -.00000112  00000+0  25049-4 0  9997
2 67441  50.0122 343.1484 0000731 120.1401 239.9544 13.29324955 24590
HULIANWANG DIGUI-144    
1 67442U 26007H   26196.38979399 -.00000105  00000+0  40917-4 0  9990
2 67442  50.0107 344.4365 0000885 124.8257 235.2698 13.29329273 24548
HULIANWANG DIGUI-145    
1 67443U 26007J   26196.75752706 -.00000106  00000+0  39880-4 0  9991
2 67443  50.0110 343.0515 0000843 121.6196 238.4759 13.29325834 24593
HULIANWANG DIGUI-146    
1 67522U 26013A   26196.50160913 -.00000077  00000+0  10223-3 0  9998
2 67522  50.0070 254.3572 0001333 219.1572 140.9203 13.29325245 23810
HULIANWANG DIGUI-147    
1 67523U 26013B   26196.41793292 -.00000076  00000+0  10355-3 0  9996
2 67523  50.0040 254.5348 0001252 219.3240 140.7541 13.29328842 23803
HULIANWANG DIGUI-148    
1 67524U 26013C   26196.40954911 -.00000088  00000+0  77766-4 0  9996
2 67524  50.0082 254.5541 0001294 218.3476 141.7304 13.29326702 23802
HULIANWANG DIGUI-149    
1 67525U 26013D   26196.40133613 -.00000088  00000+0  76753-4 0  9990
2 67525  50.0076 254.5029 0001494 220.7247 139.3514 13.29331529 23801
HULIANWANG DIGUI-150    
1 67526U 26013E   26196.53500838 -.00000067  00000+0  12365-3 0  9997
2 67526  50.0036 253.8184 0001284 220.1084 139.9693 13.29325776 23847
HULIANWANG DIGUI-151    
1 67527U 26013F   26196.54332933 -.00000074  00000+0  10766-3 0  9999
2 67527  50.0086 253.9280 0001270 219.0463 141.0317 13.29327902 23822
HULIANWANG DIGUI-152    
1 67528U 26013G   26196.52656932 -.00000078  00000+0  99127-4 0  9999
2 67528  50.0028 253.7644 0001274 222.1363 137.9411 13.29332469 23822
HULIANWANG DIGUI-153    
1 67529U 26013H   26196.51830809 -.00000079  00000+0  96510-4 0  9990
2 67529  50.0029 253.7241 0001261 223.2707 136.8066 13.29323803 23812
HULIANWANG DIGUI-154    
1 67530U 26013J   26196.50985183 -.00000079  00000+0  97548-4 0  9999
2 67530  50.0054 253.7193 0001248 220.5629 139.5151 13.29332281 23811
HULIANWANG DIGUI-155    
1 68129U 26047A   26196.49656137 -.00000103  00000+0  45388-4 0  9996
2 68129  50.0046 314.8518 0000915 201.8935 158.1899 13.29333847 16838
